{
    "links": {
        "self": "http://www.neowsapp.com/rest/v1/neo/3721409?api_key=iIulBulltgU6a56xZRHN4H3l9WmuAYTsLGpBGhQ2"
    },
    "id": "3721409",
    "neo_reference_id": "3721409",
    "name": "(2015 MN11)",
    "designation": "2015 MN11",
    "nasa_jpl_url": "http://ssd.jpl.nasa.gov/sbdb.cgi?sstr=3721409",
    "absolute_magnitude_h": 24.6,
    "estimated_diameter": {
        "kilometers": {
            "estimated_diameter_min": 0.0319561887,
            "estimated_diameter_max": 0.0714562102
        },
        "meters": {
            "estimated_diameter_min": 31.9561886721,
            "estimated_diameter_max": 71.4562101727
        },
        "miles": {
            "estimated_diameter_min": 0.0198566489,
            "estimated_diameter_max": 0.0444008168
        },
        "feet": {
            "estimated_diameter_min": 104.8431420431,
            "estimated_diameter_max": 234.436392583
        }
    },
    "is_potentially_hazardous_asteroid": false,
    "close_approach_data": [
        {
            "close_approach_date": "2015-06-24",
            "close_approach_date_full": "2015-Jun-24 23:15",
            "epoch_date_close_approach": 1435187700000,
            "relative_velocity": {
                "kilometers_per_second": "21.9313826104",
                "kilometers_per_hour": "78952.9773976106",
                "miles_per_hour": "49058.3097613098"
            },
            "miss_distance": {
                "astronomical": "0.0322021245",
                "lunar": "12.5266264305",
                "kilometers": "4817369.234674815",
                "miles": "2993374.437809847"
            },
            "orbiting_body": "Earth"
        }
    ],
    "orbital_data": {
        "orbit_id": "7",
        "orbit_determination_date": "2017-04-06 08:33:04",
        "first_observation_date": "2015-06-16",
        "last_observation_date": "2015-06-24",
        "data_arc_in_days": 8,
        "observations_used": 36,
        "orbit_uncertainty": "8",
        "minimum_orbit_intersection": ".00692922",
        "jupiter_tisserand_invariant": "3.433",
        "epoch_osculation": "2457192.5",
        "eccentricity": ".7054141570552169",
        "semi_major_axis": "2.041258750562361",
        "inclination": "5.710993933875076",
        "ascending_node_longitude": "278.5263900070159",
        "orbital_period": "1065.235217519159",
        "perihelion_distance": ".6013259297028277",
        "perihelion_argument": "85.33288837212677",
        "aphelion_distance": "3.481191571421894",
        "perihelion_time": "2457246.416362082020",
        "mean_anomaly": "341.7787752129232",
        "mean_motion": ".3379535280840685",
        "equinox": "J2000",
        "orbit_class": {
            "orbit_class_type": "APO",
            "orbit_class_description": "Near-Earth asteroid orbits which cross the Earth’s orbit similar to that of 1862 Apollo",
            "orbit_class_range": "a (semi-major axis) > 1.0 AU; q (perihelion) < 1.017 AU"
        }
    },
    "is_sentry_object": false
}